{"type": "FeatureCollection", "features": [ {"type": "Feature", "properties": {"norad_id": 35701, "name": "COSMOS 2251 DEB", "group": "cosmos-2251-debris", "lat": -0.4000948006180715, "lon": -59.12046695789476, "alt_km": 1146.8473144724076, "timestamp": "2025-12-13T13:34:35.436690+00:00", "meta": {"OBJECT_NAME": "COSMOS 2251 DEB", "OBJECT_ID": "1993-036APW", "EPOCH": "2025-12-06T05:57:57.623904", "MEAN_MOTION": 13.80843435, "ECCENTRICITY": 0.02897209, "INCLINATION": 74.0028, "RA_OF_ASC_NODE": 313.2955, "ARG_OF_PERICENTER": 164.0681, "MEAN_ANOMALY": 196.98, "EPHEMERIS_TYPE": 0, "CLASSIFICATION_TYPE": "U", "NORAD_CAT_ID": 35701, "ELEMENT_SET_NO": 999, "REV_AT_EPOCH": 62069, "BSTAR": 0.0021223911, "MEAN_MOTION_DOT": 3.05e-05, "MEAN_MOTION_DDOT": 0}, "tle": {"line1": "1 35701U 93036APW 25340.24858361  .00003050  00000+0  21224-2 0  9998", "line2": "2 35701  74.0028 313.2955 0289720 164.0681 196.9800 13.80843435620696"}}, "geometry": {"type": "Point", "coordinates": [-59.12046695789476, -0.4000948006180715]}}, {"type": "Feature", "properties": {"norad_id": 35703, "name": "COSMOS 2251 DEB", "group": "cosmos-2251-debris", "lat": -15.742241607486093, "lon": 36.48598121318384, "alt_km": 628.2870418842613, "timestamp": "2025-12-13T13:34:35.436699+00:00", "meta": {"OBJECT_NAME": "COSMOS 2251 DEB", "OBJECT_ID": "1993-036APY", "EPOCH": "2025-12-12T10:15:45.866880", "MEAN_MOTION": 14.90346907, "ECCENTRICITY": 0.00647642, "INCLINATION": 74.0423, "RA_OF_ASC_NODE": 43.3891, "ARG_OF_PERICENTER": 113.367, "MEAN_ANOMALY": 247.4343, "EPHEMERIS_TYPE": 0, "CLASSIFICATION_TYPE": "U", "NORAD_CAT_ID": 35703, "ELEMENT_SET_NO": 999, "REV_AT_EPOCH": 66611, "BSTAR": 0.0010688568, "MEAN_MOTION_DOT": 0.00010799, "MEAN_MOTION_DDOT": 0}, "tle": {"line1": "1 35703U 93036APY 25346.42761420  .00010799  00000+0  10689-2 0  9996", "line2": "2 35703  74.0423  43.3891 0064764 113.3670 247.4343 14.90346907666116"}}, "geometry": {"type": "Point", "coordinates": [36.48598121318384, -15.742241607486093]}}, {"type": "Feature", "properties": {"norad_id": 35705, "name": "COSMOS 2251 DEB", "group": "cosmos-2251-debris", "lat": 65.4001629027035, "lon": 172.22244282386822, "alt_km": 624.3997540514038, "timestamp": "2025-12-13T13:34:35.436708+00:00", "meta": {"OBJECT_NAME": "COSMOS 2251 DEB", "OBJECT_ID": "1993-036AQA", "EPOCH": "2025-12-03T05:18:59.084352", "MEAN_MOTION": 14.71707631, "ECCENTRICITY": 0.0034156, "INCLINATION": 74.2742, "RA_OF_ASC_NODE": 154.0557, "ARG_OF_PERICENTER": 110.0272, "MEAN_ANOMALY": 250.4584, "EPHEMERIS_TYPE": 0, "CLASSIFICATION_TYPE": "U", "NORAD_CAT_ID": 35705, "ELEMENT_SET_NO": 999, "REV_AT_EPOCH": 85786, "BSTAR": 0.0035867, "MEAN_MOTION_DOT": 0.00022615, "MEAN_MOTION_DDOT": 0}, "tle": {"line1": "1 35705U 93036AQA 25337.22151718  .00022615  00000+0  35867-2 0  9994", "line2": "2 35705  74.2742 154.0557 0034156 110.0272 250.4584 14.71707631857866"}}, "geometry": {"type": "Point", "coordinates": [172.22244282386822, 65.4001629027035]}}, {"type": "Feature", "properties": {"norad_id": 35706, "name": "COSMOS 2251 DEB", "group": "cosmos-2251-debris", "lat": 12.857500412460913, "lon": 65.22706809998647, "alt_km": 1039.8601795633122, "timestamp": "2025-12-13T13:34:35.436717+00:00", "meta": {"OBJECT_NAME": "COSMOS 2251 DEB", "OBJECT_ID": "1993-036AQB", "EPOCH": "2025-12-11T12:17:37.968864", "MEAN_MOTION": 13.65920781, "ECCENTRICITY": 0.03407993, "INCLINATION": 73.8889, "RA_OF_ASC_NODE": 64.8358, "ARG_OF_PERICENTER": 114.8803, "MEAN_ANOMALY": 248.8145, "EPHEMERIS_TYPE": 0, "CLASSIFICATION_TYPE": "U", "NORAD_CAT_ID": 35706, "ELEMENT_SET_NO": 999, "REV_AT_EPOCH": 62045, "BSTAR": 0.0015097542, "MEAN_MOTION_DOT": 1.827e-05, "MEAN_MOTION_DDOT": 0}, "tle": {"line1": "1 35706U 93036AQB 25345.51224501  .00001827  00000+0  15098-2 0  9993", "line2": "2 35706  73.8889  64.8358 0340799 114.8803 248.8145 13.65920781620458"}}, "geometry": {"type": "Point", "coordinates": [65.22706809998647, 12.857500412460913]}}, {"type": "Feature", "properties": {"norad_id": 35711, "name": "COSMOS 2251 DEB", "group": "cosmos-2251-debris", "lat": 21.779605131853277, "lon": -134.56109743411028, "alt_km": 652.6919723760366, "timestamp": "2025-12-13T13:34:35.436726+00:00", "meta": {"OBJECT_NAME": "COSMOS 2251 DEB", "OBJECT_ID": "1993-036AQG", "EPOCH": "2025-12-12T07:57:00.074304", "MEAN_MOTION": 14.63799963, "ECCENTRICITY": 0.00853727, "INCLINATION": 74.0465, "RA_OF_ASC_NODE": 221.2435, "ARG_OF_PERICENTER": 322.3756, "MEAN_ANOMALY": 37.1457, "EPHEMERIS_TYPE": 0, "CLASSIFICATION_TYPE": "U", "NORAD_CAT_ID": 35711, "ELEMENT_SET_NO": 999, "REV_AT_EPOCH": 87765, "BSTAR": 0.0003776445, "MEAN_MOTION_DOT": 2.044e-05, "MEAN_MOTION_DDOT": 0}, "tle": {"line1": "1 35711U 93036AQG 25346.33125086  .00002044  00000+0  37764-3 0  9995", "line2": "2 35711  74.0465 221.2435 0085372 322.3756  37.1457 14.63799963877654"}}, "geometry": {"type": "Point", "coordinates": [-134.56109743411028, 21.779605131853277]}}, {"type": "Feature", "properties": {"norad_id": 35716, "name": "COSMOS 2251 DEB", "group": "cosmos-2251-debris", "lat": 73.93146531749821, "lon": -72.69264030750008, "alt_km": 651.7532530821991, "timestamp": "2025-12-13T13:34:35.436735+00:00", "meta": {"OBJECT_NAME": "COSMOS 2251 DEB", "OBJECT_ID": "1993-036AQM", "EPOCH": "2025-12-10T22:58:34.278816", "MEAN_MOTION": 14.60083428, "ECCENTRICITY": 0.0088633, "INCLINATION": 73.9924, "RA_OF_ASC_NODE": 197.6138, "ARG_OF_PERICENTER": 39.0207, "MEAN_ANOMALY": 26.7611, "EPHEMERIS_TYPE": 0, "CLASSIFICATION_TYPE": "U", "NORAD_CAT_ID": 35716, "ELEMENT_SET_NO": 999, "REV_AT_EPOCH": 87601, "BSTAR": 0.00015815, "MEAN_MOTION_DOT": 7.71e-06, "MEAN_MOTION_DDOT": 0}, "tle": {"line1": "1 35716U 93036AQM 25344.95734119  .00000771  00000+0  15815-3 0  9997", "line2": "2 35716  73.9924 197.6138 0088633  39.0207  26.7611 14.60083428876013"}}, "geometry": {"type": "Point", "coordinates": [-72.69264030750008, 73.93146531749821]}}, {"type": "Feature", "properties": {"norad_id": 35717, "name": "COSMOS 2251 DEB", "group": "cosmos-2251-debris", "lat": 22.637975397066224, "lon": 29.187001037646382, "alt_km": 753.6995738360047, "timestamp": "2025-12-13T13:34:35.436744+00:00", "meta": {"OBJECT_NAME": "COSMOS 2251 DEB", "OBJECT_ID": "1993-036AQN", "EPOCH": "2025-12-11T09:07:06.227616", "MEAN_MOTION": 14.38476212, "ECCENTRICITY": 0.00768139, "INCLINATION": 74.1604, "RA_OF_ASC_NODE": 219.9837, "ARG_OF_PERICENTER": 79.9617, "MEAN_ANOMALY": 281.0194, "EPHEMERIS_TYPE": 0, "CLASSIFICATION_TYPE": "U", "NORAD_CAT_ID": 35717, "ELEMENT_SET_NO": 999, "REV_AT_EPOCH": 74080, "BSTAR": 0.0019460313, "MEAN_MOTION_DOT": 6.131e-05, "MEAN_MOTION_DDOT": 0}, "tle": {"line1": "1 35717U 93036AQN 25345.37993319  .00006131  00000+0  19460-2 0  9999", "line2": "2 35717  74.1604 219.9837 0076813  79.9617 281.0194 14.38476212740802"}}, "geometry": {"type": "Point", "coordinates": [29.187001037646382, 22.637975397066224]}}, {"type": "Feature", "properties": {"norad_id": 35718, "name": "COSMOS 2251 DEB", "group": "cosmos-2251-debris", "lat": -11.164712809377987, "lon": 125.13404099553283, "alt_km": 676.9086283802362, "timestamp": "2025-12-13T13:34:35.436753+00:00", "meta": {"OBJECT_NAME": "COSMOS 2251 DEB", "OBJECT_ID": "1993-036AQP", "EPOCH": "2025-12-12T03:17:53.201184", "MEAN_MOTION": 14.68638717, "ECCENTRICITY": 0.00109549, "INCLINATION": 74.0319, "RA_OF_ASC_NODE": 131.1364, "ARG_OF_PERICENTER": 179.8219, "MEAN_ANOMALY": 180.2958, "EPHEMERIS_TYPE": 0, "CLASSIFICATION_TYPE": "U", "NORAD_CAT_ID": 35718, "ELEMENT_SET_NO": 999, "REV_AT_EPOCH": 65831, "BSTAR": 0.002396412, "MEAN_MOTION_DOT": 0.00013946, "MEAN_MOTION_DDOT": 0}, "tle": {"line1": "1 35718U 93036AQP 25346.13742131  .00013946  00000+0  23964-2 0  9995", "line2": "2 35718  74.0319 131.1364 0010954 179.8219 180.2958 14.68638717658312"}}, "geometry": {"type": "Point", "coordinates": [125.13404099553283, -11.164712809377987]}}, {"type": "Feature", "properties": {"norad_id": 35721, "name": "COSMOS 2251 DEB", "group": "cosmos-2251-debris", "lat": -73.53987566776344, "lon": 73.23076763316364, "alt_km": 724.6042253927435, "timestamp": "2025-12-13T13:34:35.436763+00:00", "meta": {"OBJECT_NAME": "COSMOS 2251 DEB", "OBJECT_ID": "1993-036AQS", "EPOCH": "2025-12-09T19:36:39.465216", "MEAN_MOTION": 14.34317214, "ECCENTRICITY": 0.01465875, "INCLINATION": 73.9489, "RA_OF_ASC_NODE": 183.1196, "ARG_OF_PERICENTER": 330.1589, "MEAN_ANOMALY": 29.126, "EPHEMERIS_TYPE": 0, "CLASSIFICATION_TYPE": "U", "NORAD_CAT_ID": 35721, "ELEMENT_SET_NO": 999, "REV_AT_EPOCH": 57747, "BSTAR": 0.0018396061, "MEAN_MOTION_DOT": 5.808e-05, "MEAN_MOTION_DDOT": 0}, "tle": {"line1": "1 35721U 93036AQS 25343.81712344  .00005808  00000+0  18396-2 0  9995", "line2": "2 35721  73.9489 183.1196 0146587 330.1589  29.1260 14.34317214577479"}}, "geometry": {"type": "Point", "coordinates": [73.23076763316364, -73.53987566776344]}}, {"type": "Feature", "properties": {"norad_id": 35724, "name": "COSMOS 2251 DEB", "group": "cosmos-2251-debris", "lat": -70.95454166379088, "lon": -114.92933763236101, "alt_km": 747.4071105410958, "timestamp": "2025-12-13T13:34:35.436772+00:00", "meta": {"OBJECT_NAME": "COSMOS 2251 DEB", "OBJECT_ID": "1993-036AQV", "EPOCH": "2025-12-11T07:36:26.462016", "MEAN_MOTION": 14.58193223, "ECCENTRICITY": 0.00589289, "INCLINATION": 74.0322, "RA_OF_ASC_NODE": 305.3872, "ARG_OF_PERICENTER": 99.5025, "MEAN_ANOMALY": 261.2806, "EPHEMERIS_TYPE": 0, "CLASSIFICATION_TYPE": "U", "NORAD_CAT_ID": 35724, "ELEMENT_SET_NO": 999, "REV_AT_EPOCH": 87508, "BSTAR": 0.00043935858, "MEAN_MOTION_DOT": 2.046e-05, "MEAN_MOTION_DDOT": 0}, "tle": {"line1": "1 35724U 93036AQV 25345.31697294  .00002046  00000+0  43936-3 0  9991", "line2": "2 35724  74.0322 305.3872 0058928  99.5025 261.2806 14.58193223875082"}}, "geometry": {"type": "Point", "coordinates": [-114.92933763236101, -70.95454166379088]}}]}